FENGYUN 1C DEB          
1 31499U 99025BWN 17345.63207779  .00002011  00000-0  14076-2 0  9996
2 31499  97.6733 291.7731 0333716  64.5593 298.9699 13.75618905219894
